[{"OBJECT_NAME":"APRIZESAT 2","OBJECT_ID":"2004-025A","EPOCH":"2026-03-09T10:28:26.148000","MEAN_MOTION":14.37988294,"ECCENTRICITY":0.01054712,"INCLINATION":98.091,"RA_OF_ASC_NODE":240.1116,"ARG_OF_PERICENTER":190.5785,"MEAN_ANOMALY":169.3185,"EPHEMERIS_TYPE":0,"CLASSIFICATION_TYPE":"U","NORAD_CAT_ID":28366,"ELEMENT_SET_NO":999,"REV_AT_EPOCH":13730,"BSTAR":0.00014374466,"MEAN_MOTION_DOT":4.21e-6,"MEAN_MOTION_DDOT":0},{"OBJECT_NAME":"FENGYUN 1C DEB","OBJECT_ID":"1999-025AGM","EPOCH":"2026-03-08T18:34:27.202080","MEAN_MOTION":14.39133617,"ECCENTRICITY":0.00265788,"INCLINATION":98.9202,"RA_OF_ASC_NODE":155.0407,"ARG_OF_PERICENTER":114.3564,"MEAN_ANOMALY":11.2752,"EPHEMERIS_TYPE":0,"CLASSIFICATION_TYPE":"U","NORAD_CAT_ID":30474,"ELEMENT_SET_NO":999,"REV_AT_EPOCH":98630,"BSTAR":0.0028647381,"MEAN_MOTION_DOT":8.866e-5,"MEAN_MOTION_DDOT":0}]
